NORAD_CAT_ID,OBJECT_NAME,OBJECT_TYPE,EPOCH,MEAN_MOTION,ECCENTRICITY,INCLINATION,RA_OF_ASC_NODE,ARG_OF_PERICENTER,MEAN_ANOMALY,BSTAR,MEAN_MOTION_DOT,MEAN_MOTION_DDOT,TLE_LINE0,TLE_LINE1,TLE_LINE2,SEMIMAJOR_AXIS,PERIOD,APOGEE,PERIGEE,DECAYED
53568.0,STARLINK-4583,PAYLOAD,2023-03-08 15:58:16,15.08810843,0.0001453,53.2178,298.7232,341.7293,18.3646,0.00044177,6.744e-05,0.0,0 STARLINK-4583,1 53568U 22101AT  23067.66546422  .00006744  00000-0  44177-3 0  9993,2 53568  53.2178 298.7232 0001453 341.7293  18.3646 15.08810843 30830,6917.97,95.439,540.84,538.829,0.0
53568.0,STARLINK-4583,PAYLOAD,2023-03-08 22:19:49,15.0884226,0.0001146,53.2186,297.5334,77.5992,282.5128,-3.1976e-05,-7.97e-06,0.0,0 STARLINK-4583,1 53568U 22101AT  23067.93042923 -.00000797  00000-0 -31976-4 0  9998,2 53568  53.2186 297.5334 0001146  77.5992 282.5128 15.08842260 31567,6917.873,95.437,540.531,538.946,0.0
53568.0,STARLINK-4583,PAYLOAD,2023-03-09 22:10:35,15.08855157,0.0001286,53.2176,293.0725,68.3164,291.7965,8.9703e-05,1.141e-05,0.0,0 STARLINK-4583,1 53568U 22101AT  23068.92401800  .00001141  00000-0  89703-4 0  9994,2 53568  53.2176 293.0725 0001286  68.3164 291.7965 15.08855157 31712,6917.834,95.437,540.589,538.809,0.0
53568.0,STARLINK-4583,PAYLOAD,2023-03-10 07:42:54,15.08836458,0.0001396,53.2171,291.2901,81.9223,278.1927,9.8636e-05,1.282e-05,0.0,0 STARLINK-4583,1 53568U 22101AT  23069.32146871  .00001282  00000-0  98636-4 0  9994,2 53568  53.2171 291.2901 0001396  81.9223 278.1927 15.08836458 31082,6917.891,95.438,540.722,538.79,0.0
53568.0,STARLINK-4583,PAYLOAD,2023-03-10 14:04:28,15.08832266,0.0001095,53.2174,290.1003,58.7545,301.3554,4.4636e-06,-2.17e-06,0.0,0 STARLINK-4583,1 53568U 22101AT  23069.58643734 -.00000217  00000-0  44636-5 0  9992,2 53568  53.2174 290.1003 0001095  58.7545 301.3554 15.08832266 31124,6917.904,95.438,540.527,539.012,0.0
53568.0,STARLINK-4583,PAYLOAD,2023-03-10 20:26:00,15.08834443,7.34e-05,53.2181,288.9098,79.9107,280.1968,-4.647e-05,-1.027e-05,0.0,0 STARLINK-4583,1 53568U 22101AT  23069.85139747 -.00001027  00000-0 -46470-4 0  9994,2 53568  53.2181 288.9098 0000734  79.9107 280.1968 15.08834443 31851,6917.897,95.438,540.27,539.255,0.0
53568.0,STARLINK-4583,PAYLOAD,2023-03-11 01:12:09,15.08840243,0.0001006,53.2168,288.016,92.7437,267.3671,3.9448e-05,3.4e-06,0.0,0 STARLINK-4583,1 53568U 22101AT  23070.05011108  .00000340  00000-0  39448-4 0  9990,2 53568  53.2168 288.0160 0001006  92.7437 267.3671 15.08840243 31199,6917.88,95.438,540.441,539.049,0.0
53568.0,STARLINK-4583,PAYLOAD,2023-03-12 13:46:02,15.08829924,0.0001231,53.2187,281.1804,78.904,281.209,6.1409e-05,6.89e-06,0.0,0 STARLINK-4583,1 53568U 22101AT  23071.57363877  .00000689  00000-0  61409-4 0  9999,2 53568  53.2187 281.1804 0001231  78.9040 281.2090 15.08829924 31424,6917.911,95.438,540.628,538.925,0.0
53568.0,STARLINK-4583,PAYLOAD,2023-03-12 18:32:11,15.08833061,0.0001408,53.2178,280.2875,97.339,262.7762,8.1198e-05,1.004e-05,0.0,0 STARLINK-4583,1 53568U 22101AT  23071.77235561  .00001004  00000-0  81198-4 0  9998,2 53568  53.2178 280.2875 0001408  97.3390 262.7762 15.08833061 32148,6917.902,95.438,540.741,538.793,0.0
53568.0,STARLINK-4583,PAYLOAD,2023-03-13 23:09:07,15.08843604,9.35e-05,53.2166,274.9342,82.8097,277.3002,-4.4851e-05,-1.002e-05,0.0,0 STARLINK-4583,1 53568U 22101AT  23072.96467429 -.00001002  00000-0 -44851-4 0  9995,2 53568  53.2166 274.9342 0000935  82.8097 277.3002 15.08843604 31637,6917.869,95.437,540.381,539.088,0.0
53568.0,STARLINK-4583,PAYLOAD,2023-03-14 22:59:51,15.08866311,8.62e-05,53.2173,270.4744,70.3412,289.7673,0.0001925,2.779e-05,0.0,0 STARLINK-4583,1 53568U 22101AT  23073.95824028  .00002779  00000-0  19250-3 0  9991,2 53568  53.2173 270.4744 0000862  70.3412 289.7673 15.08866311 31781,6917.8,95.436,540.261,539.069,0.0
53568.0,STARLINK-4583,PAYLOAD,2023-03-15 19:39:56,15.08825771,7.89e-05,53.2161,266.6077,56.6777,303.429,-0.00010375,-1.938e-05,0.0,0 STARLINK-4583,1 53568U 22101AT  23074.81940313 -.00001938  00000-0 -10375-3 0  9990,2 53568  53.2161 266.6077 0000789  56.6777 303.4290 15.08825771 31912,6917.924,95.438,540.335,539.243,0.0
53568.0,STARLINK-4583,PAYLOAD,2023-03-15 22:50:41,15.08840151,6.35e-05,53.2164,266.0126,68.3461,291.7599,3.9687e-05,3.44e-06,0.0,0 STARLINK-4583,1 53568U 22101AT  23074.95187032  .00000344  00000-0  39687-4 0  9992,2 53568  53.2164 266.0126 0000635  68.3461 291.7599 15.08840151 31936,6917.88,95.438,540.184,539.306,0.0
53568.0,STARLINK-4583,PAYLOAD,2023-03-16 13:09:10,15.08811969,7.98e-05,53.2157,263.3354,74.3974,285.7106,4.0844e-05,3.62e-06,0.0,0 STARLINK-4583,1 53568U 22101AT  23075.54803802  .00000362  00000-0  40844-4 0  9995,2 53568  53.2157 263.3354 0000798  74.3974 285.7106 15.08811969 32020,6917.966,95.439,540.383,539.279,0.0
53568.0,STARLINK-4583,PAYLOAD,2023-03-16 19:30:42,15.08820856,7.62e-05,53.2199,262.1463,52.8206,307.2856,0.00010208,1.337e-05,0.0,0 STARLINK-4583,1 53568U 22101AT  23075.81299520  .00001337  00000-0  10208-3 0  9994,2 53568  53.2199 262.1463 0000762  52.8206 307.2856 15.08820856 32065,6917.939,95.439,540.331,539.277,0.0
53568.0,STARLINK-4583,PAYLOAD,2023-03-16 21:06:05,15.08821941,0.0001045,53.2192,261.849,74.5222,285.5886,0.00010555,1.392e-05,0.0,0 STARLINK-4583,1 53568U 22101AT  23075.87923510  .00001392  00000-0  10555-3 0  9999,2 53568  53.2192 261.8490 0001045  74.5222 285.5886 15.08821941 32762,6917.936,95.439,540.524,539.078,0.0
53568.0,STARLINK-4583,PAYLOAD,2023-03-17 12:59:57,15.08828751,9.26e-05,53.217,258.8746,72.2903,287.819,9.1942e-05,1.175e-05,0.0,0 STARLINK-4583,1 53568U 22101AT  23076.54163897  .00001175  00000-0  91942-4 0  9997,2 53568  53.2170 258.8746 0000926  72.2903 287.8190 15.08828751 32866,6917.915,95.438,540.42,539.139,0.0
53568.0,STARLINK-4583,PAYLOAD,2023-03-18 00:07:38,15.08843431,8.79e-05,53.216,256.7931,73.4385,286.6704,0.00013852,1.918e-05,0.0,0 STARLINK-4583,1 53568U 22101AT  23077.00530957  .00001918  00000-0  13852-3 0  9992,2 53568  53.2160 256.7931 0000879  73.4385 286.6704 15.08843431 32244,6917.87,95.437,540.343,539.127,0.0
53568.0,STARLINK-4583,PAYLOAD,2023-03-18 20:47:40,15.08841707,0.0001108,53.2169,252.9273,70.5092,289.602,0.00010185,1.334e-05,0.0,0 STARLINK-4583,1 53568U 22101AT  23077.86643528  .00001334  00000-0  10185-3 0  9993,2 53568  53.2169 252.9273 0001108  70.5092 289.6020 15.08841707 32371,6917.875,95.437,540.507,538.974,0.0
53568.0,STARLINK-4583,PAYLOAD,2023-03-19 04:44:36,15.08830719,9.67e-05,53.217,251.4407,79.5509,280.5592,-1.5039e-05,-5.27e-06,0.0,0 STARLINK-4583,1 53568U 22101AT  23078.19764460 -.00000527  00000-0 -15039-4 0  9998,2 53568  53.2170 251.4407 0000967  79.5509 280.5592 15.08830719 32421,6917.909,95.438,540.443,539.105,0.0
53568.0,STARLINK-4583,PAYLOAD,2023-03-19 19:03:03,15.08847993,9.56e-05,53.2173,248.7637,89.059,271.0511,1.4738e-05,-5.3e-07,0.0,0 STARLINK-4583,1 53568U 22101AT  23078.79379241 -.00000053  00000-0  14738-4 0  9991,2 53568  53.2173 248.7637 0000956  89.0590 271.0511 15.08847993 32510,6917.856,95.437,540.382,539.06,0.0
53568.0,STARLINK-4583,PAYLOAD,2023-03-19 20:38:26,15.08849942,9.49e-05,53.2175,248.4664,87.6138,272.4963,3.1318e-05,2.11e-06,0.0,0 STARLINK-4583,1 53568U 22101AT  23078.86003038  .00000211  00000-0  31318-4 0  9995,2 53568  53.2175 248.4664 0000949  87.6138 272.4963 15.08849942 33213,6917.85,95.437,540.372,539.058,0.0
53568.0,STARLINK-4583,PAYLOAD,2023-03-20 04:35:23,15.08844376,0.0001538,53.2176,246.9799,62.906,297.2089,-0.00011398,-2.102e-05,0.0,0 STARLINK-4583,1 53568U 22101AT  23079.19123979 -.00002102  00000-0 -11398-3 0  9997,2 53568  53.2176 246.9799 0001538  62.9060 297.2089 15.08844376 32579,6917.867,95.437,540.796,538.668,0.0
53568.0,STARLINK-4583,PAYLOAD,2023-03-20 10:56:55,15.08841827,0.0001644,53.2176,245.7906,63.9465,296.1696,-0.00012665,-2.303e-05,0.0,0 STARLINK-4583,1 53568U 22101AT  23079.45620156 -.00002303  00000-0 -12665-3 0  9996,2 53568  53.2176 245.7906 0001644  63.9465 296.1696 15.08841827 33306,6917.875,95.437,540.877,538.603,0.0
53568.0,STARLINK-4583,PAYLOAD,2023-03-20 17:18:28,15.08843566,0.0001015,53.217,244.6016,75.1273,284.9832,-5.7445e-05,-1.202e-05,0.0,0 STARLINK-4583,1 53568U 22101AT  23079.72115859 -.00001202  00000-0 -57445-4 0  9998,2 53568  53.2170 244.6016 0001015  75.1273 284.9832 15.08843566 33347,6917.869,95.437,540.437,539.032,0.0
53568.0,STARLINK-4583,PAYLOAD,2023-03-21 10:47:42,15.08832127,9.81e-05,53.2181,241.3298,78.236,281.8742,7.1903e-05,8.57e-06,0.0,0 STARLINK-4583,1 53568U 22101AT  23080.44980058  .00000857  00000-0  71903-4 0  9998,2 53568  53.2181 241.3298 0000981  78.2360 281.8742 15.08832127 32769,6917.904,95.438,540.448,539.091,0.0
53568.0,STARLINK-4583,PAYLOAD,2023-03-21 21:55:23,15.08849984,0.0001576,53.2173,239.2501,64.9873,295.1283,6.6576e-05,7.72e-06,0.0,0 STARLINK-4583,1 53568U 22101AT  23080.91346973  .00000772  00000-0  66576-4 0  9998,2 53568  53.2173 239.2501 0001576  64.9873 295.1283 15.08849984 32830,6917.85,95.437,540.805,538.625,0.0
53568.0,STARLINK-4583,PAYLOAD,2023-03-22 10:38:29,15.0883384,0.0001849,53.2153,236.8709,69.1432,290.9758,4.5007e-05,4.28e-06,0.0,0 STARLINK-4583,1 53568U 22101AT  23081.44340150  .00000428  00000-0  45007-4 0  9992,2 53568  53.2153 236.8709 0001849  69.1432 290.9758 15.08833840 32915,6917.899,95.438,541.043,538.485,0.0
53568.0,STARLINK-4583,PAYLOAD,2023-03-22 17:00:02,15.088418,0.0001266,53.2181,235.6798,79.7863,280.3272,1.1036e-05,-1.12e-06,0.0,0 STARLINK-4583,1 53568U 22101AT  23081.70835700 -.00000112  00000-0  11036-4 0  9997,2 53568  53.2181 235.6798 0001266  79.7863 280.3272 15.08841800 33649,6917.875,95.437,540.616,538.864,0.0
53568.0,STARLINK-4583,PAYLOAD,2023-03-22 21:46:10,15.08847889,0.0001196,53.2173,234.7868,90.0581,270.0548,7.1824e-05,8.56e-06,0.0,0 STARLINK-4583,1 53568U 22101AT  23081.90706999  .00000856  00000-0  71824-4 0  9991,2 53568  53.2173 234.7868 0001196  90.0581 270.0548 15.08847889 32984,6917.856,95.437,540.549,538.894,0.0
